*******************************************************************************
JPL/HORIZONS                  ATLAS (C/2025 N1)            2025-Sep-24 07:30:11
Rec #:90004916 (+COV) Soln.date: 2025-Sep-08_18:29:13     # obs: 603 (104 days)
 
IAU76/J2000 helio. ecliptic osc. elements (au, days, deg., period=Julian yrs):
 
  EPOCH=  2460878.5 ! 2025-Jul-22.0000000 (TDB)    RMSW= n.a.
   EC= 6.139587836355706   QR= 1.356419039495192   TP= 2460977.9814392594
   OM= 322.1568699043938   W= 128.0099421020839    IN= 175.1131015287974
   A= -.26391591751781     MA= -3.18224798181177   ADIST= 9.999999E99
   PER= 9.999999E99        N= 7.269519353          ANGMOM= .053532183
   DAN= -3.48262           DDN= 2.02568            L= 194.0456433
   B= 3.8486331            MOID= .36415401         TP= 2025-Oct-29.4814392594
 
Comet physical (GM= km^3/s^2; RAD= km):
   GM= n.a.                RAD= n.a.
   M1=  12.3     M2=  n.a.     k1=  4.5    k2= n.a.     PHCOF= n.a.
COMET comments 
1: soln ref.= JPL#26, data arc: 2025-05-15 to 2025-08-27
2: k1=4.5;
*******************************************************************************


*******************************************************************************
Ephemeris / WWW_USER Wed Sep 24 07:30:12 2025 Pasadena, USA      / Horizons    
*******************************************************************************
Target body name: ATLAS (C/2025 N1)               {source: JPL#26}
Center body name: Earth (399)                     {source: DE441}
Center-site name: Cerro Paranal
*******************************************************************************
Start time      : A.D. 2025-Sep-15 22:00:00.0000 UT      
Stop  time      : A.D. 2025-Sep-16 04:00:00.0000 UT      
Step-size       : 1 minutes
*******************************************************************************
Target pole/equ : undefined
Target radii    : undefined                                                    
Center geodetic : 289.5957, -24.6272128, 2.63514  {E-lon(deg),Lat(deg),Alt(km)}
Center cylindric: 289.5957,5803.73915,-2642.69127 {E-lon(deg),Dxy(km),Dz(km)}
Center pole/equ : ITRF93                          {East-longitude positive}
Center radii    : 6378.137, 6378.137, 6356.752 km {Equator_a, b, pole_c}       
Target primary  : Sun
Vis. interferer : MOON (R_eq= 1737.400) km        {source: DE441}
Rel. light bend : Sun                             {source: DE441}
Rel. lght bnd GM: 1.3271E+11 km^3/s^2                                          
Small-body perts: Yes                             {source: SB441-N16}
Atmos refraction: NO (AIRLESS)
RA format       : HMS
Time format     : BOTH
Calendar mode   : Mixed Julian/Gregorian
RTS-only print  : NO       
EOP file        : eop.250923.p251219                                           
EOP coverage    : DATA-BASED 1962-JAN-20 TO 2025-SEP-23. PREDICTS-> 2025-DEC-18
Units conversion: 1 au= 149597870.700 km, c= 299792.458 km/s, 1 day= 86400.0 s 
Table cut-offs 1: Elevation ( 20.0deg=YES),Airmass (< 2.800=YES),Daylight (NO )
Table cut-offs 2: Solar elongation (  0.0,180.0=NO ),Local Hour Angle( 0.0=NO )
Table cut-offs 3: RA/DEC angular rate (     0.0=NO )                           
Table format    : Comma Separated Values (spreadsheet)
*******************************************************************************
Initial IAU76/J2000 heliocentric ecliptic osculating elements (au, days, deg.):
  EPOCH=  2460878.5 ! 2025-Jul-22.0000000 (TDB)    RMSW= n.a.                  
   EC= 6.139587836355706   QR= 1.356419039495192   TP= 2460977.9814392594      
   OM= 322.1568699043938   W= 128.0099421020839    IN= 175.1131015287974       
  Equivalent ICRF heliocentric cartesian coordinates (au, au/d):
   X=-1.616994368572366E-02  Y=-3.597814381333365E+00  Z=-1.278571631651561E+00
  VX=-1.386152884723053E-02 VY= 3.077166736535444E-02 VZ= 1.171310239604216E-02
Comet physical (GM= km^3/s^2; RAD= km):                                        
   GM= n.a.                RAD= n.a.                                           
   M1=  12.3     M2=  n.a.     k1=  4.5    k2= n.a.     PHCOF= n.a.            
************************************************************************************************************************************************************************************
 Date__(UT)__HR:MN:SS, Date_________JDUT, , , R.A._____(ICRF), DEC______(ICRF),  dRA*cosD, d(DEC)/dt,    T-mag,  N-mag,                r,       rdot,             delta,     deldot,
************************************************************************************************************************************************************************************
$$SOE
 2025-Sep-15 22:00:00, 2460934.416666667,*, , 14 55 52.410208, -12 43 12.41887,  -78.3335,  17.84530,   15.761,   n.a.,   2.085332337148,-47.2921754,  2.54020595849956, -3.4119495,
 2025-Sep-15 22:01:00, 2460934.417361111,*, , 14 55 52.321017, -12 43 12.11917,  -78.3312,  17.84601,   15.761,   n.a.,   2.085313369272,-47.2918773,  2.54020459023670, -3.4104163,
 2025-Sep-15 22:02:00, 2460934.418055556,*, , 14 55 52.231828, -12 43 11.81945,  -78.3289,  17.84672,   15.761,   n.a.,   2.085294401516,-47.2915791,  2.54020322258799, -3.4088872,
 2025-Sep-15 22:03:00, 2460934.418750000,*, , 14 55 52.142642, -12 43 11.51972,  -78.3267,  17.84742,   15.761,   n.a.,   2.085275433880,-47.2912809,  2.54020185555181, -3.4073621,
 2025-Sep-15 22:04:00, 2460934.419444445,*, , 14 55 52.053459, -12 43 11.21998,  -78.3244,  17.84812,   15.761,   n.a.,   2.085256466363,-47.2909827,  2.54020048912653, -3.4058412,
 2025-Sep-15 22:05:00, 2460934.420138889,*, , 14 55 51.964278, -12 43 10.92023,  -78.3221,  17.84883,   15.761,   n.a.,   2.085237498966,-47.2906845,  2.54019912331049, -3.4043244,
 2025-Sep-15 22:06:00, 2460934.420833333,*, , 14 55 51.875100, -12 43 10.62046,  -78.3197,  17.84953,   15.761,   n.a.,   2.085218531688,-47.2903863,  2.54019775810201, -3.4028118,
 2025-Sep-15 22:07:00, 2460934.421527778,*, , 14 55 51.785925, -12 43 10.32069,  -78.3174,  17.85022,   15.761,   n.a.,   2.085199564531,-47.2900881,  2.54019639349943, -3.4013033,
 2025-Sep-15 22:08:00, 2460934.422222222,*, , 14 55 51.696752, -12 43 10.02090,  -78.3151,  17.85092,   15.760,   n.a.,   2.085180597493,-47.2897899,  2.54019502950104, -3.3997992,
 2025-Sep-15 22:09:00, 2460934.422916667,*, , 14 55 51.607582, -12 43 09.72110,  -78.3127,  17.85161,   15.760,   n.a.,   2.085161630574,-47.2894916,  2.54019366610515, -3.3982992,
 2025-Sep-15 22:10:00, 2460934.423611111,*, , 14 55 51.518415, -12 43 09.42129,  -78.3103,  17.85231,   15.760,   n.a.,   2.085142663776,-47.2891934,  2.54019230331004, -3.3968036,
 2025-Sep-15 22:11:00, 2460934.424305555,*, , 14 55 51.429251, -12 43 09.12147,  -78.3079,  17.85300,   15.760,   n.a.,   2.085123697097,-47.2888951,  2.54019094111399, -3.3953122,
 2025-Sep-15 22:12:00, 2460934.425000000,*, , 14 55 51.340089, -12 43 08.82164,  -78.3055,  17.85368,   15.760,   n.a.,   2.085104730538,-47.2885969,  2.54018957951526, -3.3938253,
 2025-Sep-15 22:13:00, 2460934.425694444,*, , 14 55 51.250930, -12 43 08.52179,  -78.3031,  17.85437,   15.760,   n.a.,   2.085085764098,-47.2882986,  2.54018821851209, -3.3923427,
 2025-Sep-15 22:14:00, 2460934.426388889,*, , 14 55 51.161774, -12 43 08.22193,  -78.3007,  17.85505,   15.760,   n.a.,   2.085066797779,-47.2880003,  2.54018685810273, -3.3908645,
 2025-Sep-15 22:15:00, 2460934.427083333,*, , 14 55 51.072621, -12 43 07.92207,  -78.2982,  17.85574,   15.760,   n.a.,   2.085047831579,-47.2877020,  2.54018549828541, -3.3893907,
 2025-Sep-15 22:16:00, 2460934.427777778,*, , 14 55 50.983470, -12 43 07.62219,  -78.2958,  17.85642,   15.760,   n.a.,   2.085028865499,-47.2874037,  2.54018413905833, -3.3879214,
 2025-Sep-15 22:17:00, 2460934.428472222,*, , 14 55 50.894322, -12 43 07.32230,  -78.2933,  17.85709,   15.760,   n.a.,   2.085009899538,-47.2871054,  2.54018278041971, -3.3864566,
 2025-Sep-15 22:18:00, 2460934.429166667,*, , 14 55 50.805178, -12 43 07.02240,  -78.2908,  17.85777,   15.760,   n.a.,   2.084990933697,-47.2868071,  2.54018142236774, -3.3849963,
 2025-Sep-15 22:19:00, 2460934.429861111,*, , 14 55 50.716036, -12 43 06.72249,  -78.2884,  17.85844,   15.760,   n.a.,   2.084971967976,-47.2865088,  2.54018006490059, -3.3835406,
 2025-Sep-15 22:20:00, 2460934.430555556,*, , 14 55 50.626896, -12 43 06.42256,  -78.2858,  17.85912,   15.760,   n.a.,   2.084953002375,-47.2862105,  2.54017870801644, -3.3820894,
 2025-Sep-15 22:21:00, 2460934.431250000,*, , 14 55 50.537760, -12 43 06.12263,  -78.2833,  17.85979,   15.760,   n.a.,   2.084934036894,-47.2859121,  2.54017735171344, -3.3806429,
 2025-Sep-15 22:22:00, 2460934.431944444,*, , 14 55 50.448627, -12 43 05.82268,  -78.2808,  17.86046,   15.760,   n.a.,   2.084915071532,-47.2856138,  2.54017599598974, -3.3792009,
 2025-Sep-15 22:23:00, 2460934.432638889,*, , 14 55 50.359497, -12 43 05.52273,  -78.2783,  17.86112,   15.760,   n.a.,   2.084896106290,-47.2853154,  2.54017464084348, -3.3777637,
 2025-Sep-15 22:24:00, 2460934.433333333,*, , 14 55 50.270369, -12 43 05.22276,  -78.2757,  17.86178,   15.760,   n.a.,   2.084877141168,-47.2850170,  2.54017328627279, -3.3763311,
 2025-Sep-15 22:25:00, 2460934.434027778,*, , 14 55 50.181245, -12 43 04.92278,  -78.2731,  17.86245,   15.760,   n.a.,   2.084858176165,-47.2847187,  2.54017193227576, -3.3749033,
 2025-Sep-15 22:26:00, 2460934.434722222,*, , 14 55 50.092123, -12 43 04.62279,  -78.2705,  17.86311,   15.760,   n.a.,   2.084839211283,-47.2844203,  2.54017057885052, -3.3734802,
 2025-Sep-15 22:27:00, 2460934.435416667,*, , 14 55 50.003005, -12 43 04.32279,  -78.2679,  17.86376,   15.760,   n.a.,   2.084820246520,-47.2841219,  2.54016922599514, -3.3720618,
 2025-Sep-15 22:28:00, 2460934.436111111,*, , 14 55 49.913889, -12 43 04.02278,  -78.2653,  17.86442,   15.760,   n.a.,   2.084801281876,-47.2838235,  2.54016787370770, -3.3706483,
